GLOBALSTAR M001         
1 25162U 98008A   25263.61366875 -.00000055  00000+0  32220-3 0  9993
2 25162  52.0037  55.4732 0002297  96.2586 344.0929 12.38217898255537
GLOBALSTAR M004         
1 25163U 98008B   25263.86966449 -.00000047  00000+0  31543-3 0  9992
2 25163  51.9989 122.2467 0003542 130.2876 243.7132 12.63403516273785
GLOBALSTAR M002         
1 25164U 98008C   25263.51676443 -.00000089  00000+0 -24644-3 0  9998
2 25164  52.0054   1.1811 0000923 335.1997  24.8779 11.61511701195140
GLOBALSTAR M003         
1 25165U 98008D   25263.72244372 -.00000185  00000+0 -10229-2 0  9994
2 25165  51.9940 263.9290 0008220 122.5939  48.8308 12.12060073244804
GLOBALSTAR M014         
1 25306U 98023A   25263.77664928 -.00000076  00000+0  35031-4 0  9994
2 25306  51.9831 281.7461 0000947 166.0019   5.2663 11.65481728202310
GLOBALSTAR M006         
1 25307U 98023B   25263.95419045 -.00000051  00000+0  49686-3 0  9996
2 25307  51.9973 337.3490 0002669 275.6152 255.4729 11.58175863227924
GLOBALSTAR M015         
1 25308U 98023C   25263.74392315 -.00000089  00000+0 -36660-3 0  9994
2 25308  51.9812  80.7188 0011739 244.3167 128.3832 11.48858864205069
GLOBALSTAR M008         
1 25309U 98023D   25263.83957061 -.00000064  00000+0  25416-3 0  9999
2 25309  51.9961 280.7350 0002721  21.8834 151.9833 12.36072530249672
